ORBCOMM FM115           
1 41186U 15081H   24176.57349872  .00000879  00000+0  21340-3 0  9996
2 41186  46.9999 298.3364 0001619 245.4254 114.6464 14.60826846455450
ORBCOMM FM108           
1 41187U 15081J   24176.47343521  .00001062  00000+0  27287-3 0  9992
2 41187  47.0064 354.5354 0001800 124.3267 235.7789 14.56657041454617
ORBCOMM FM117           
1 41188U 15081K   24176.57654689  .00001078  00000+0  27621-3 0  9993
2 41188  47.0024 352.9288 0002785 133.0787 227.0331 14.56707044454671
ORBCOMM FM116           
1 41189U 15081L   24176.22257915  .00001136  00000+0  28937-3 0  9993
2 41189  47.0026  84.4152 0002036 216.0454 144.0294 14.56670055453433
